STARLINK-32507          
1 62132U 24222U   26068.55793403  .00033261  00000+0  12123-2 0  9999
2 62132  43.0013 136.5179 0001550 284.6210  75.4470 15.27593585 72582
LIZZIESAT-2 (LS-2)      
1 62383U 24247G   26068.49140277  .00009388  00000+0  34517-3 0  9997
2 62383  44.9909 117.0823 0004092 327.5136  32.5495 15.28222796 67716
